IRIDIUM 921             
1 24873U 97034E   24284.57505024  .00101518  00000+0  16250-2 0  9996
2 24873  86.3763 230.4854 0008859 114.0380 246.1809 15.52725993492993
IRIDIUM 26              
1 24903U 97043A   24284.54228459  .00002466  00000+0  83110-3 0  9993
2 24903  86.4003 215.3457 0002376  89.7227 270.4242 14.36679412420898
IRIDIUM 22              
1 24907U 97043E   24284.54837535  .00002215  00000+0  76301-3 0  9994
2 24907  86.4000 218.6682 0002471  85.7416 274.4063 14.35543183420953
DUMMY MASS 1            
1 24925U 97048A   24284.45099366  .00002306  00000+0  25780-3 0  9997
2 24925  86.3316 250.6937 0005086 332.2960  27.7993 14.86497801468022
DUMMY MASS 2            
1 24926U 97048B   24284.43910462  .00002233  00000+0  25096-3 0  9994
2 24926  86.3317 252.2625 0006333 342.9408  17.1602 14.86253158467807
IRIDIUM 29              
1 24944U 97051A   24284.44549047  .00002486  00000+0  84955-3 0  9995
2 24944  86.3932 248.5482 0002472  82.6608 277.4869 14.35989633417426
IRIDIUM 33              
1 24946U 97051C   24284.44327481  .00001671  00000+0  58510-3 0  9996
2 24946  86.3846 247.7957 0008397 157.4270 202.7297 14.34562394416939
IRIDIUM 28              
1 24948U 97051E   24284.44253599  .00002246  00000+0  75250-3 0  9995
2 24948  86.3940 246.2060 0002464  98.9658 261.1818 14.36939268417976
